#aV2024  7 26  0  0  0.00000000     288 DD+AD WGS84 FIT  NGA
## 2324 432000.00000000   300.00000000 60517 0.0000000000000
+   31     2  3  4  5  6  7  8  9 10 11 12 13 14 15 16 17 18
+         19 20 21 22 23 24 25 26 27 28 29 30 31 32  0  0  0
+          0  0  0  0  0  0  0  0  0  0  0  0  0  0  0  0  0
+          0  0  0  0  0  0  0  0  0  0  0  0  0  0  0  0  0
+          0  0  0  0  0  0  0  0  0  0  0  0  0  0  0  0  0
++         2  2  2  2  2  2  2  2  2  2  2  2  2  2  2  2  2
++         2  2  2  2  2  2  2  2  2  2  2  2  2  2  0  0  0
++         0  0  0  0  0  0  0  0  0  0  0  0  0  0  0  0  0
++         0  0  0  0  0  0  0  0  0  0  0  0  0  0  0  0  0
++         0  0  0  0  0  0  0  0  0  0  0  0  0  0  0  0  0
%c cc cc ccc ccc cccc cccc cccc cccc ccccc ccccc ccccc ccccc
%c cc cc ccc ccc cccc cccc cccc cccc ccccc ccccc ccccc ccccc
%f  0.0000000  0.000000000  0.00000000000  0.000000000000000
%f  0.0000000  0.000000000  0.00000000000  0.000000000000000
%i    0    0    0    0      0      0      0      0         0
%i    0    0    0    0      0      0      0      0         0
/*      NGA, ST. LOUIS,MO.                                  
/*   EPHEMERIS COMPUTED FROM 2 DAYS OF DATA                 
/*   EPOCHA v9 SMOOTHER                                     
/*   G2296 IERS2010 SATIGS SATAPC                           
*  2024  7 26 21  5  0.00000000
P  2 -13871.558492  11791.856163  19702.374247   -391.321747                    
V  2   -655.471624 -24111.517642  14622.327209      0.074550                    
P  3 -22652.644973  13066.630621  -4434.317246    474.836732                    
V  3  -5805.965166    258.516151  31707.649258      0.157728                    
P  4 -15288.597824   6273.340455 -20807.458522    411.799950                    
V  4 -20276.591444 -16935.846573   9648.943599      0.076365                    
P  5  23897.796226  -3223.343296 -11405.373075   -181.097010                    
V  5 -11774.325105   8108.784537 -27330.505274     -0.013018                    
P  6   5736.579372  22415.821130 -12882.558472    137.453303                    
V  6  -3655.256200  16123.540678  26403.311190     -0.234189                    
P  7  -5870.112197  25183.777107  -4335.130229    -62.397674                    
V  7  -2855.116517  -6586.425616 -31168.001901      0.069533                    
P  8 -22371.588379  -2977.383385  14224.193611    290.890805                    
V  8 -13806.202713 -11893.037285 -23592.051533      0.155805                    
P  9  -4014.190700  15420.356327 -21327.693977    288.996496                    
V  9 -22429.345739 -14852.592733  -6597.373623      0.152355                    
P 10  -4632.264890 -14082.543610  22233.015299    -76.582249                    
V 10  25444.373336 -10880.010661  -1923.850935     -0.102486                    
P 11  12962.719582  10176.697774 -20817.821365   -711.669240                    
V 11  -4866.043505  26019.216094   9616.501715     -0.063615                    
P 12  24395.593716 -10289.341646  -2023.859404   -525.454392                    
V 12   3056.854589   1883.582922  31669.835724     -0.030429                    
P 13  21651.921311  12500.438688   9093.466843    667.058130                    
V 13   6942.099457   9732.759209 -28979.621900      0.023505                    
P 14    309.026163  16280.106452  20990.672153    458.051344                    
V 14 -24961.613052   9383.442806  -7143.091640      0.088346                    
P 15  22456.970727    189.217446  13809.989764    185.553845                    
V 15  15057.303454  10906.159518 -23583.993156      0.042854                    
P 16 -22910.614039  -2472.543860 -13921.009656   -225.705328                    
V 16  15473.009576  -7137.934050 -24358.407082      0.105118                    
P 17   9272.997658  20531.496258  14356.362291    669.215641                    
V 17 -14761.659443  -9720.166591  24304.520464     -0.083369                    
P 18   6123.207952 -25376.897810  -4211.874072   -640.527808                    
V 18   1818.417800   5667.337559 -31597.752735     -0.036949                    
P 19  16452.313235  20286.076464   5749.879084    516.007071                    
V 19  -6977.019796  -3359.863360  30522.914959      0.053004                    
P 20  18401.074292   3574.928883 -18692.644200    372.339243                    
V 20 -18957.534909  14713.930540 -15941.689395     -0.004122                    
P 21 -15107.533584   5013.828722  21525.348008    106.523543                    
V 21   -559.669293 -26547.668751   6936.266603     -0.021316                    
P 22   8376.493349  13275.888542  21813.601683    -44.235030                    
V 22 -25195.716745   9001.477869   4567.629759     -0.044036                    
P 23   8748.989850 -17453.330400  17931.007830    283.005145                    
V 23  21163.327959  -8475.538854 -18804.334373      0.088065                    
P 24  14475.210607  -9850.865391  19428.684009   -484.601960                    
V 24   1433.705810  25839.611512  12183.394776     -0.012611                    
P 25  17263.301642 -16816.032271 -11206.587170    498.860225                    
V 25  13748.270698  -3243.888082  27110.234086      0.003031                    
P 26 -13619.268999 -10123.742429 -20655.575657    112.601188                    
V 26  22413.150215 -13056.431728  -8069.365443     -0.071789                    
P 27 -23138.960597 -12456.754579   4894.597794    -31.978609                    
V 27  -3868.605760  -5764.214635 -30692.379825     -0.007673                    
P 28  -5588.174050 -23717.636151 -10578.208795   -347.604172                    
V 28   3468.440076 -13190.689683  27769.414741     -0.155347                    
P 29   8441.043057 -12500.494769 -21901.788463   -587.507325                    
V 29  21164.748802  17831.061133  -2148.259680      0.020377                    
P 30   1448.997316  25779.063548   5741.991843   -350.955414                    
V 30  -4450.187737   6741.442056 -30198.426309      0.066287                    
P 31 -11663.077901 -14546.490967 -18988.551065   -226.447695                    
V 31   4719.806358 -23389.969142  15579.237371      0.003301                    
P 32 -12331.521509 -19917.324278  12920.804052   -609.933329                    
V 32  14168.277585   7670.347920  25577.367131      0.022863                    
EOF
